$$SOE
2459580.500000000, A.D. 2022-Jan-01 00:00:00.0000, 3.308275922883292E+08, -1.136439333373424E+08, -1.093793620494963E+07,
2459587.500000000, A.D. 2022-Jan-08 00:00:00.0000, 3.330346131755374E+08, -1.016375282428947E+08, -9.632835676951028E+06,
2459594.500000000, A.D. 2022-Jan-15 00:00:00.0000, 3.348593430143667E+08, -8.951453585732815E+07, -8.316677872557633E+06,
2459601.500000000, A.D. 2022-Jan-22 00:00:00.0000, 3.362942903617394E+08, -7.728743918444897E+07, -6.990841678961322E+06,
2459608.500000000, A.D. 2022-Jan-29 00:00:00.0000, 3.373323650518605E+08, -6.496923189214303E+07, -5.656759660899073E+06,
2459615.500000000, A.D. 2022-Feb-05 00:00:00.0000, 3.379669146044858E+08, -5.257341066135498E+07, -4.315916852552146E+06,
2459622.500000000, A.D. 2022-Feb-12 00:00:00.0000, 3.381917635174406E+08, -4.011396561663266E+07, -2.969849509447621E+06,
2459629.500000000, A.D. 2022-Feb-19 00:00:00.0000, 3.380012538798853E+08, -2.760536628777419E+07, -1.620143487076392E+06,
2459636.500000000, A.D. 2022-Feb-26 00:00:00.0000, 3.373902857293836E+08, -1.506254366238755E+07, -2.684321687255315E+05,
2459643.500000000, A.D. 2022-Mar-05 00:00:00.0000, 3.363543570169915E+08, -2.500868804643235E+06, 1.083606006293359E+06,
2459650.500000000, A.D. 2022-Mar-12 00:00:00.0000, 3.348896030787655E+08, 1.006387201039124E+07, 2.434250399246337E+06,
2459657.500000000, A.D. 2022-Mar-19 00:00:00.0000, 3.329928353353952E+08, 2.261550576133601E+07, 3.781741416785914E+06,
2459664.500000000, A.D. 2022-Mar-26 00:00:00.0000, 3.306615788702420E+08, 3.513750478995126E+07, 5.124284145263931E+06,
2459671.500000000, A.D. 2022-Apr-02 00:00:00.0000, 3.278941085627549E+08, 4.761302251195668E+07, 6.460052363383979E+06,
2459678.500000000, A.D. 2022-Apr-09 00:00:00.0000, 3.246894836430121E+08, 6.002493270095219E+07, 7.787192903327178E+06,
2459685.500000000, A.D. 2022-Apr-16 00:00:00.0000, 3.210475806024263E+08, 7.235587291782752E+07, 9.103830369958028E+06,
2459692.500000000, A.D. 2022-Apr-23 00:00:00.0000, 3.169691227631987E+08, 8.458829304443626E+07, 1.040807240717554E+07,
2459699.500000000, A.D. 2022-Apr-30 00:00:00.0000, 3.124557042241532E+08, 9.670450650011277E+07, 1.169801547943096E+07,
2459706.500000000, A.D. 2022-May-07 00:00:00.0000, 3.075098108426895E+08, 1.086867419270345E+08, 1.297175069911402E+07,
2459713.500000000, A.D. 2022-May-14 00:00:00.0000, 3.021348392441335E+08, 1.205171980884238E+08, 1.422736978677490E+07,
2459720.500000000, A.D. 2022-May-21 00:00:00.0000, 2.963351114565424E+08, 1.321781023953586E+08, 1.546297137374712E+07,
2459727.500000000, A.D. 2022-May-28 00:00:00.0000, 2.901158843587626E+08, 1.436517717089007E+08, 1.667666756892565E+07,
2459734.500000000, A.D. 2022-Jun-04 00:00:00.0000, 2.834833539273654E+08, 1.549206746615423E+08, 1.786659068988333E+07,
2459741.500000000, A.D. 2022-Jun-11 00:00:00.0000, 2.764446541847497E+08, 1.659674950139214E+08, 1.903090009203193E+07,
2459748.500000000, A.D. 2022-Jun-18 00:00:00.0000, 2.690078507014772E+08, 1.767751955370721E+08, 2.016778903661294E+07,
2459755.500000000, A.D. 2022-Jun-25 00:00:00.0000, 2.611819285601664E+08, 1.873270818341218E+08, 2.127549153265072E+07,
2459762.500000000, A.D. 2022-Jul-02 00:00:00.0000, 2.529767748618028E+08, 1.976068654601580E+08, 2.235228907374917E+07,
2459769.500000000, A.D. 2022-Jul-09 00:00:00.0000, 2.444031561838207E+08, 2.075987259256986E+08, 2.339651718513252E+07,
2459776.500000000, A.D. 2022-Jul-16 00:00:00.0000, 2.354726910214361E+08, 2.172873720635588E+08, 2.440657180854519E+07,
2459783.500000000, A.D. 2022-Jul-23 00:00:00.0000, 2.261978151566573E+08, 2.266581022416445E+08, 2.538091566651545E+07,
2459790.500000000, A.D. 2022-Jul-30 00:00:00.0000, 2.165917402595371E+08, 2.356968595147904E+08, 2.631808426436809E+07,
2459797.500000000, A.D. 2022-Aug-06 00:00:00.0000, 2.066684096319176E+08, 2.443902818444158E+08, 2.721669119874410E+07,
2459804.500000000, A.D. 2022-Aug-13 00:00:00.0000, 1.964424506462515E+08, 2.527257496514364E+08, 2.807543302329563E+07,
2459811.500000000, A.D. 2022-Aug-20 00:00:00.0000, 1.859291227464800E+08, 2.606914297577408E+08, 2.889309373059349E+07,
2459818.500000000, A.D. 2022-Aug-27 00:00:00.0000, 1.751442615689125E+08, 2.682763146013329E+08, 2.966854874612091E+07,
2459825.500000000, A.D. 2022-Sep-03 00:00:00.0000, 1.641042199606087E+08, 2.754702562864442E+08, 3.040076836958605E+07,
2459832.500000000, A.D. 2022-Sep-10 00:00:00.0000, 1.528258065453029E+08, 2.822639952328167E+08, 3.108882063113934E+07,
2459839.500000000, A.D. 2022-Sep-17 00:00:00.0000, 1.413262224483874E+08, 2.886491832360526E+08, 3.173187354141980E+07,
2459846.500000000, A.D. 2022-Sep-24 00:00:00.0000, 1.296229968362528E+08, 2.946184007770187E+08, 3.232919671574934E+07,
2459853.500000000, A.D. 2022-Oct-01 00:00:00.0000, 1.177339221072428E+08, 3.001651685225372E+08, 3.288016234698874E+07,
2459860.500000000, A.D. 2022-Oct-08 00:00:00.0000, 1.056769897321121E+08, 3.052839535794621E+08, 3.338424553898878E+07,
2459867.500000000, A.D. 2022-Oct-15 00:00:00.0000, 9.347032638911076E+07, 3.099701718095025E+08, 3.384102419760041E+07,
2459874.500000000, A.D. 2022-Oct-22 00:00:00.0000, 8.113212875694585E+07, 3.142201846820518E+08, 3.425017856024806E+07,
2459881.500000000, A.D. 2022-Oct-29 00:00:00.0000, 6.868059996337327E+07, 3.180312883021213E+08, 3.461148995042528E+07,
2459888.500000000, A.D. 2022-Nov-05 00:00:00.0000, 5.613389026033854E+07, 3.214016976511121E+08, 3.492483882299115E+07,
2459895.500000000, A.D. 2022-Nov-12 00:00:00.0000, 4.351004038673536E+07, 3.243305276351978E+08, 3.519020242041589E+07,
2459902.500000000, A.D. 2022-Nov-19 00:00:00.0000, 3.082692726653907E+07, 3.268177703494551E+08, 3.540765206837378E+07,
2459909.500000000, A.D. 2022-Nov-26 00:00:00.0000, 1.810221261741584E+07, 3.288642685554883E+08, 3.557735009827058E+07,
2459916.500000000, A.D. 2022-Dec-03 00:00:00.0000, 5.353294894290892E+06, 3.304716857775007E+08, 3.569954642673913E+07,
2459923.500000000, A.D. 2022-Dec-10 00:00:00.0000, -7.402735183318025E+06, 3.316424734638191E+08, 3.577457483657894E+07,
2459930.500000000, A.D. 2022-Dec-17 00:00:00.0000, -2.014913534668226E+07, 3.323798356206150E+08, 3.580284900182204E+07,
2459937.500000000, A.D. 2022-Dec-24 00:00:00.0000, -3.286954853090666E+07, 3.326876912794328E+08, 3.578485828744493E+07,
2459944.500000000, A.D. 2022-Dec-31 00:00:00.0000, -4.554803526406118E+07, 3.325706353230853E+08, 3.572116334403685E+07,
2459951.500000000, A.D. 2023-Jan-07 00:00:00.0000, -5.816910157531443E+07, 3.320338990365871E+08, 3.561239160765952E+07,
2459958.500000000, A.D. 2023-Jan-14 00:00:00.0000, -7.071772443655366E+07, 3.310833112693607E+08, 3.545923296710694E+07,
2459965.500000000, A.D. 2023-Jan-21 00:00:00.0000, -8.317937546408468E+07, 3.297252573954310E+08, 3.526243543657951E+07,
2459972.500000000, A.D. 2023-Jan-28 00:00:00.0000, -9.554003933682951E+07, 3.279666362082307E+08, 3.502280051833312E+07,
2459979.500000000, A.D. 2023-Feb-04 00:00:00.0000, -1.077862272913159E+08, 3.258148181001097E+08, 3.474117855781595E+07,
2459986.500000000, A.D. 2023-Feb-11 00:00:00.0000, -1.199049876524169E+08, 3.232776046214200E+08, 3.441846427103658E+07,
2459993.500000000, A.D. 2023-Feb-18 00:00:00.0000, -1.318839136459273E+08, 3.203631888449032E+08, 3.405559240906344E+07,
2460000.500000000, A.D. 2023-Feb-25 00:00:00.0000, -1.437111484292964E+08, 3.170801165911686E+08, 3.365353354515392E+07,
2460007.500000000, A.D. 2023-Mar-04 00:00:00.0000, -1.553753874479419E+08, 3.134372487215493E+08, 3.321328999603377E+07,
2460014.500000000, A.D. 2023-Mar-11 00:00:00.0000, -1.668658783047132E+08, 3.094437246568039E+08, 3.273589189089015E+07,
2460021.500000000, A.D. 2023-Mar-18 00:00:00.0000, -1.781724183146468E+08, 3.051089272022343E+08, 3.222239339292650E+07,
2460028.500000000, A.D. 2023-Mar-25 00:00:00.0000, -1.892853497604351E+08, 3.004424487359644E+08, 3.167386906144005E+07,
2460035.500000000, A.D. 2023-Apr-01 00:00:00.0000, -2.001955526392209E+08, 2.954540592333778E+08, 3.109141035544443E+07,
2460042.500000000, A.D. 2023-Apr-08 00:00:00.0000, -2.108944357255402E+08, 2.901536774104787E+08, 3.047612244064525E+07,
2460049.500000000, A.D. 2023-Apr-15 00:00:00.0000, -2.213739284869556E+08, 2.845513439188519E+08, 2.982912142634934E+07,
2460056.500000000, A.D. 2023-Apr-22 00:00:00.0000, -2.316264722258315E+08, 2.786571935529484E+08, 2.915153161663757E+07,
2460063.500000000, A.D. 2023-Apr-29 00:00:00.0000, -2.416450078902587E+08, 2.724814287074212E+08, 2.844448270731360E+07,
2460070.500000000, A.D. 2023-May-06 00:00:00.0000, -2.514229624955374E+08, 2.660342958458746E+08, 2.770910723408283E+07,
2460077.500000000, A.D. 2023-May-13 00:00:00.0000, -2.609542353014410E+08, 2.593260640649689E+08, 2.694653828613433E+07,
2460084.500000000, A.D. 2023-May-20 00:00:00.0000, -2.702331836634896E+08, 2.523670052300706E+08, 2.615790741959746E+07,
2460091.500000000, A.D. 2023-May-27 00:00:00.0000, -2.792546085025541E+08, 2.451673756109270E+08, 2.534434274523152E+07,
2460098.500000000, A.D. 2023-Jun-03 00:00:00.0000, -2.880137394588771E+08, 2.377373989921097E+08, 2.450696718036403E+07,
2460105.500000000, A.D. 2023-Jun-10 00:00:00.0000, -2.965062198180193E+08, 2.300872511850110E+08, 2.364689685412981E+07,
2460112.500000000, A.D. 2023-Jun-17 00:00:00.0000, -3.047280912201096E+08, 2.222270458159393E+08, 2.276523964491928E+07,
2460119.500000000, A.D. 2023-Jun-24 00:00:00.0000, -3.126757779225982E+08, 2.141668213768664E+08, 2.186309381708328E+07,
2460126.500000000, A.D. 2023-Jul-01 00:00:00.0000, -3.203460704439061E+08, 2.059165302955256E+08, 2.094154679317760E+07,
2460133.500000000, A.D. 2023-Jul-08 00:00:00.0000, -3.277361103348325E+08, 1.974860307749368E+08, 2.000167427434343E+07,
2460140.500000000, A.D. 2023-Jul-15 00:00:00.0000, -3.348433774197947E+08, 1.888850785033827E+08, 1.904453958663172E+07,
2460147.500000000, A.D. 2023-Jul-22 00:00:00.0000, -3.416656760377137E+08, 1.801233171317988E+08, 1.807119283780537E+07,
$$EOE